OBJECT_NAME,OBJECT_ID,EPOCH,MEAN_MOTION,ECCENTRICITY,INCLINATION,RA_OF_ASC_NODE,ARG_OF_PERICENTER,MEAN_ANOMALY,EPHEMERIS_TYPE,CLASSIFICATION_TYPE,NORAD_CAT_ID,ELEMENT_SET_NO,REV_AT_EPOCH,BSTAR,MEAN_MOTION_DOT,MEAN_MOTION_DDOT
STARLINK-37987,2026-150L,2026-07-21T02:53:15.563328,15.75244793,.00008704,97.2844,40.7701,101.6219,258.5144,0,U,69749,999,425,.11009792E-2,.167749E-2,0
STARLINK-38037,2026-150M,2026-07-21T14:00:01.999872,15.75203450,.00011235,97.2849,41.3301,83.4067,190.6346,0,U,69750,999,432,-.24662603E-3,-.36778E-3,0
STARLINK-38049,2026-150N,2026-07-21T12:40:30.797472,15.80914458,.0000716,97.2842,41.2882,115.7872,244.3470,0,U,69751,999,432,.12339224E-2,.244041E-2,0
STARLINK-38029,2026-150P,2026-07-21T11:38:15.249408,15.75300434,.00012022,97.2861,41.1938,99.6686,260.4715,0,U,69752,999,431,.18661517E-2,.289235E-2,0
STARLINK-37965,2026-150Q,2026-07-21T11:47:54.653856,15.75286398,.00009883,97.2850,41.1842,101.1794,258.9583,0,U,69753,999,431,.1752509E-2,.27086E-2,0
STARLINK-38048,2026-150R,2026-07-21T00:22:28.110432,15.80881778,.00012238,97.2835,40.7598,66.4308,293.7089,0,U,69754,999,424,.12497925E-2,.246892E-2,0
STARLINK-38006,2026-150S,2026-07-21T11:34:41.766240,15.75288420,.00006291,97.2863,41.1970,107.2624,252.8710,0,U,69755,999,431,.17214887E-2,.265936E-2,0
STARLINK-38036,2026-150T,2026-07-21T12:56:31.374528,15.75303792,.00009732,97.2855,41.2742,139.9870,220.1467,0,U,69756,999,432,.19614132E-2,.304608E-2,0
STARLINK-38058,2026-150U,2026-07-21T14:00:01.999872,15.75216060,.0001408,97.2847,41.3466,76.5026,231.5295,0,U,69757,999,432,-.42025104E-3,-.62428E-3,0
STARLINK-38066,2026-150V,2026-07-21T14:00:01.999872,15.75209556,.00015421,97.2841,41.3566,82.6918,249.3408,0,U,69758,999,432,-.32421093E-3,-.48257E-3,0
STARLINK-38035,2026-150W,2026-07-21T00:15:48.987360,15.80976666,.00014637,97.2848,40.7686,32.1537,327.9821,0,U,69759,999,424,.16476506E-2,.330113E-2,0
STARLINK-38056,2026-150X,2026-07-21T12:20:03.694560,15.80915261,.000198,97.2846,41.3085,113.3707,246.7770,0,U,69760,999,432,.14023096E-2,.278481E-2,0
STARLINK-38069,2026-150Y,2026-07-21T14:00:01.999872,15.75199841,.00013088,97.2848,41.3628,70.1500,273.8853,0,U,69761,999,432,-.23925031E-3,-.35682E-3,0
STARLINK-38019,2026-150Z,2026-07-21T14:36:38.514240,15.75221404,.00010907,97.2851,41.3310,78.2654,281.8734,0,U,69762,999,433,.8054621E-3,.121903E-2,0
KUIPER-00258,2026-151A,2026-07-21T13:59:08.282400,15.34751256,.00110318,51.8687,149.7823,192.3011,167.7707,0,U,69763,999,299,.58542139E-3,.19726E-3,0
KUIPER-00526,2026-151B,2026-07-21T11:49:33.461760,15.36735088,.0005419,51.8765,149.9454,187.9037,172.1865,0,U,69764,999,298,-.616331E-2,-.218807E-2,0
KUIPER-00558,2026-151C,2026-07-21T14:00:01.999872,15.29512830,.00066822,51.8804,149.7419,175.8580,207.4252,0,U,69765,999,360,-.4181646E-1,-.1110428E-1,0
KUIPER-00569,2026-151D,2026-07-21T13:20:15.713952,15.37235983,.0004188,51.8781,149.6202,123.0695,237.0694,0,U,69766,999,299,.29881373E-2,.111962E-2,0
KUIPER-00589,2026-151E,2026-07-21T14:00:01.999872,15.35268666,.00052436,51.8758,149.5099,159.9301,335.8991,0,U,69767,999,363,-.12536708E-1,-.413563E-2,0
KUIPER-00598,2026-151F,2026-07-21T07:45:30.588480,15.34306434,.0013588,51.8644,151.0384,180.2651,179.8330,0,U,69768,999,295,-.26429661E-3,-.9314E-4,0
KUIPER-00604,2026-151G,2026-07-21T13:06:15.124032,15.38353789,.00026584,51.8795,149.5551,124.3751,235.7488,0,U,69769,999,299,.55532179E-3,.20995E-3,0
KUIPER-00609,2026-151H,2026-07-21T11:25:20.089344,15.38746070,.00013962,51.8802,149.8366,51.1562,308.9549,0,U,69770,999,298,.56301723E-3,.2157E-3,0
KUIPER-00611,2026-151J,2026-07-21T08:21:49.433184,15.38550131,.00014423,51.8802,150.4778,109.7062,250.4081,0,U,69771,999,296,.35239746E-3,.13251E-3,0
KUIPER-00612,2026-151K,2026-07-21T13:11:37.129056,15.38043835,.00037113,51.8788,149.5808,135.4046,224.7240,0,U,69772,999,299,.37819812E-3,.14015E-3,0
KUIPER-00614,2026-151L,2026-07-21T08:27:10.442016,15.38255886,.00025057,51.8795,150.5044,139.5848,220.5326,0,U,69773,999,296,.56435677E-3,.21275E-3,0
KUIPER-00615,2026-151M,2026-07-21T14:00:01.999872,15.35724285,.00062994,51.8777,149.5281,168.2325,326.5799,0,U,69774,999,183,.24219066E-3,.8172E-4,0
KUIPER-00616,2026-151N,2026-07-21T11:31:07.248864,15.38437420,.00025664,51.8784,149.8648,137.2660,222.8528,0,U,69775,999,298,.58361355E-3,.22149E-3,0
KUIPER-00617,2026-151P,2026-07-21T08:33:23.334048,15.37881422,.00038913,51.8796,150.5344,154.2409,205.8772,0,U,69776,999,296,.31575481E-3,.11569E-3,0
KUIPER-00619,2026-151Q,2026-07-21T11:27:04.440672,15.38653535,.00017956,51.8801,149.8415,81.3602,278.7589,0,U,69777,999,298,.58043601E-3,.22184E-3,0
KUIPER-00621,2026-151R,2026-07-21T09:57:45.682848,15.38367779,.00018786,51.8800,150.1787,127.8496,232.2662,0,U,69778,999,297,.50942021E-3,.19231E-3,0
